NORAD_CAT_ID,OBJECT_NAME,OBJECT_TYPE,EPOCH,MEAN_MOTION,ECCENTRICITY,INCLINATION,RA_OF_ASC_NODE,ARG_OF_PERICENTER,MEAN_ANOMALY,BSTAR,MEAN_MOTION_DOT,MEAN_MOTION_DDOT,TLE_LINE0,TLE_LINE1,TLE_LINE2,SEMIMAJOR_AXIS,PERIOD,APOGEE,PERIGEE,DECAYED
54087.0,STARLINK-5184,PAYLOAD,2023-07-27 17:00:56,15.08837605,0.0001177,53.2171,305.6753,86.6305,273.4822,6.6541e-05,7.71e-06,0.0,0 STARLINK-5184,1 54087U 22136AN  23208.70899106  .00000771  00000-0  66541-4 0  9994,2 54087  53.2171 305.6753 0001177  86.6305 273.4822 15.08837605 42667,6917.888,95.438,540.567,538.938,0.0
54087.0,STARLINK-5184,PAYLOAD,2023-07-28 05:44:02,15.08828295,0.0001146,53.2177,303.2972,87.1259,272.9864,-3.8533e-06,-3.49e-06,0.0,0 STARLINK-5184,1 54087U 22136AN  23209.23892189 -.00000349  00000-0 -38533-5 0  9991,2 54087  53.2177 303.2972 0001146  87.1259 272.9864 15.08828295 42744,6917.916,95.438,540.574,538.988,0.0
54087.0,STARLINK-5184,PAYLOAD,2023-07-28 18:27:07,15.08840087,0.0001092,53.2158,300.9183,78.4169,281.6946,3.2925e-06,-2.35e-06,0.0,0 STARLINK-5184,1 54087U 22136AN  23209.76883497 -.00000235  00000-0  32925-5 0  9993,2 54087  53.2158 300.9183 0001092  78.4169 281.6946 15.08840087 43296,6917.88,95.438,540.501,538.99,0.0
54087.0,STARLINK-5184,PAYLOAD,2023-07-29 18:17:53,15.08854998,0.0001027,53.2172,296.4564,74.5375,285.573,0.0001545,2.173e-05,0.0,0 STARLINK-5184,1 54087U 22136AN  23210.76242209  .00002173  00000-0  15450-3 0  9999,2 54087  53.2172 296.4564 0001027  74.5375 285.5730 15.08854998 43445,6917.835,95.437,540.41,538.989,0.0
54087.0,STARLINK-5184,PAYLOAD,2023-07-30 10:11:46,15.08831856,0.0001325,53.2156,293.4845,75.1826,284.9313,6.8276e-05,7.99e-06,0.0,0 STARLINK-5184,1 54087U 22136AN  23211.42484222  .00000799  00000-0  68276-4 0  9993,2 54087  53.2156 293.4845 0001325  75.1826 284.9313 15.08831856 43544,6917.905,95.438,540.687,538.854,0.0
54087.0,STARLINK-5184,PAYLOAD,2023-07-30 13:22:32,15.08839267,0.0001371,53.2154,292.8866,120.4873,239.6255,8.5253e-05,1.069e-05,0.0,0 STARLINK-5184,1 54087U 22136AN  23211.55731605  .00001069  00000-0  85253-4 0  9992,2 54087  53.2154 292.8866 0001371 120.4873 239.6255 15.08839267 43563,6917.883,95.438,540.696,538.799,0.0
54087.0,STARLINK-5184,PAYLOAD,2023-07-31 10:02:32,15.08850177,0.0001624,53.2168,289.0155,126.6639,233.4502,6.4274e-05,7.35e-06,0.0,0 STARLINK-5184,1 54087U 22136AN  23212.41842960  .00000735  00000-0  64274-4 0  9994,2 54087  53.2168 289.0155 0001624 126.6639 233.4502 15.08850177 43690,6917.849,95.437,540.838,538.591,0.0
54087.0,STARLINK-5184,PAYLOAD,2023-08-01 14:39:29,15.08840784,0.0001319,53.2166,283.6679,91.1732,268.9411,6.4814e-05,7.44e-06,0.0,0 STARLINK-5184,1 54087U 22136AN  23213.61075515  .00000744  00000-0  64814-4 0  9991,2 54087  53.2166 283.6679 0001319  91.1732 268.9411 15.08840784 43875,6917.878,95.438,540.655,538.831,0.0
54087.0,STARLINK-5184,PAYLOAD,2023-08-03 00:02:35,15.08831846,0.0001116,53.2156,277.4256,86.978,273.134,0.00017142,2.441e-05,0.0,0 STARLINK-5184,1 54087U 22136AN  23215.00179887  .00002441  00000-0  17142-3 0  9990,2 54087  53.2156 277.4256 0001116  86.9780 273.1340 15.08831846 44088,6917.905,95.438,540.542,538.998,0.0
54087.0,STARLINK-5184,PAYLOAD,2023-08-03 09:34:53,15.08843062,0.0001107,53.2156,275.6415,86.3347,273.7772,7.6249e-05,9.26e-06,0.0,0 STARLINK-5184,1 54087U 22136AN  23215.39923367  .00000926  00000-0  76249-4 0  9992,2 54087  53.2156 275.6415 0001107  86.3347 273.7772 15.08843062 44143,6917.871,95.437,540.502,538.97,0.0
54087.0,STARLINK-5184,PAYLOAD,2023-08-03 11:10:16,15.08852628,0.0001052,53.2154,275.3436,89.1096,271.0017,-2.0318e-05,-6.11e-06,0.0,0 STARLINK-5184,1 54087U 22136AN  23215.46547013 -.00000611  00000-0 -20318-4 0  9999,2 54087  53.2154 275.3436 0001052  89.1096 271.0017 15.08852628 44154,6917.842,95.437,540.435,538.979,0.0
54087.0,STARLINK-5184,PAYLOAD,2023-08-04 09:25:41,15.08829929,0.0001275,53.2166,271.184,104.7802,255.3332,-2.9635e-06,-3.35e-06,0.0,0 STARLINK-5184,1 54087U 22136AN  23216.39284644 -.00000335  00000-0 -29635-5 0  9995,2 54087  53.2166 271.1840 0001275 104.7802 255.3332 15.08829929 44294,6917.911,95.438,540.658,538.894,0.0
54087.0,STARLINK-5184,PAYLOAD,2023-08-05 10:51:50,15.08848214,0.0001081,53.2156,266.4234,86.3883,273.7233,0.00012729,1.739e-05,0.0,0 STARLINK-5184,1 54087U 22136AN  23217.45267361  .00001739  00000-0  12729-3 0  9991,2 54087  53.2156 266.4234 0001081  86.3883 273.7233 15.08848214 44456,6917.855,95.437,540.468,538.972,0.0
54087.0,STARLINK-5184,PAYLOAD,2023-08-05 20:24:10,15.08844327,0.000116,53.2166,264.6381,79.2983,280.8139,5.704e-05,6.2e-06,0.0,0 STARLINK-5184,1 54087U 22136AN  23217.85011722  .00000620  00000-0  57040-4 0  9997,2 54087  53.2166 264.6381 0001160  79.2983 280.8139 15.08844327 44512,6917.867,95.437,540.535,538.93,0.0
54087.0,STARLINK-5184,PAYLOAD,2023-08-06 10:42:39,15.08832763,0.000107,53.2156,261.9626,80.2772,279.8341,5.8106e-05,6.37e-06,0.0,0 STARLINK-5184,1 54087U 22136AN  23218.44628788  .00000637  00000-0  58106-4 0  9991,2 54087  53.2156 261.9626 0001070  80.2772 279.8341 15.08832763 44605,6917.903,95.438,540.508,539.027,0.0
54087.0,STARLINK-5184,PAYLOAD,2023-08-07 02:36:30,15.0884495,0.0001118,53.216,258.9884,84.7426,275.3693,-1.4207e-05,-5.14e-06,0.0,0 STARLINK-5184,1 54087U 22136AN  23219.10868423 -.00000514  00000-0 -14207-4 0  9997,2 54087  53.2160 258.9884 0001118  84.7426 275.3693 15.08844950 44703,6917.865,95.437,540.504,538.957,0.0
54087.0,STARLINK-5184,PAYLOAD,2023-08-07 08:58:01,15.08854439,9.13e-05,53.2141,257.8009,105.1127,254.9966,4.7824e-05,4.74e-06,0.0,0 STARLINK-5184,1 54087U 22136AN  23219.37363284  .00000474  00000-0  47824-4 0  9995,2 54087  53.2141 257.8009 0000913 105.1127 254.9966 15.08854439 44740,6917.836,95.437,540.333,539.07,0.0
54087.0,STARLINK-5184,PAYLOAD,2023-08-07 20:05:44,15.08841395,0.0001079,53.2161,255.7177,81.7411,278.3704,1.4365e-05,-5.9e-07,0.0,0 STARLINK-5184,1 54087U 22136AN  23219.83731954 -.00000059  00000-0  14365-4 0  9993,2 54087  53.2161 255.7177 0001079  81.7411 278.3704 15.08841395 44819,6917.876,95.437,540.488,538.995,0.0
54087.0,STARLINK-5184,PAYLOAD,2023-08-08 02:27:17,15.08832574,0.0001228,53.2151,254.5281,86.5656,273.5477,7.3217e-05,8.77e-06,0.0,0 STARLINK-5184,1 54087U 22136AN  23220.10228445  .00000877  00000-0  73217-4 0  9999,2 54087  53.2151 254.5281 0001228  86.5656 273.5477 15.08832574 44858,6917.903,95.438,540.618,538.919,0.0
54087.0,STARLINK-5184,PAYLOAD,2023-08-09 08:39:37,15.08833912,0.0001063,53.2156,248.8788,83.3888,276.7225,3.7175e-05,3.04e-06,0.0,0 STARLINK-5184,1 54087U 22136AN  23221.36084824  .00000304  00000-0  37175-4 0  9997,2 54087  53.2156 248.8788 0001063  83.3888 276.7225 15.08833912 45045,6917.899,95.438,540.499,539.029,0.0
54087.0,STARLINK-5184,PAYLOAD,2023-08-09 11:50:23,15.0884477,0.0001153,53.2156,248.2837,89.0145,271.098,-5.1861e-05,-1.113e-05,0.0,0 STARLINK-5184,1 54087U 22136AN  23221.49332312 -.00001113  00000-0 -51861-4 0  9998,2 54087  53.2156 248.2837 0001153  89.0145 271.0980 15.08844770 45065,6917.866,95.437,540.528,538.933,0.0
54087.0,STARLINK-5184,PAYLOAD,2023-08-10 08:30:24,15.08835422,0.0001279,53.2155,244.4177,87.9449,272.1689,0.00010497,1.383e-05,0.0,0 STARLINK-5184,1 54087U 22136AN  23222.35444560  .00001383  00000-0  10497-3 0  9999,2 54087  53.2155 244.4177 0001279  87.9449 272.1689 15.08835422 45198,6917.894,95.438,540.644,538.875,0.0
54087.0,STARLINK-5184,PAYLOAD,2023-08-11 09:56:34,15.08838001,0.0001224,53.2152,239.6586,82.2169,277.8962,5.8433e-05,6.42e-06,0.0,0 STARLINK-5184,1 54087U 22136AN  23223.41428752  .00000642  00000-0  58433-4 0  9992,2 54087  53.2152 239.6586 0001224  82.2169 277.8962 15.08838001 45352,6917.886,95.438,540.598,538.905,0.0
54087.0,STARLINK-5184,PAYLOAD,2023-08-12 11:22:44,15.0884008,0.000128,53.2153,234.9004,81.0035,279.1101,5.108e-05,5.25e-06,0.0,0 STARLINK-5184,1 54087U 22136AN  23224.47412817  .00000525  00000-0  51080-4 0  9995,2 54087  53.2153 234.9004 0001280  81.0035 279.1101 15.08840080 45515,6917.88,95.438,540.631,538.86,0.0
54087.0,STARLINK-5184,PAYLOAD,2023-08-13 17:35:04,15.08836045,0.0001284,53.2154,229.2502,87.4727,272.6413,3.8304e-05,3.22e-06,0.0,0 STARLINK-5184,1 54087U 22136AN  23225.73269216  .00000322  00000-0  38304-4 0  9997,2 54087  53.2154 229.2502 0001284  87.4727 272.6413 15.08836045 45709,6917.892,95.438,540.646,538.869,0.0
54087.0,STARLINK-5184,PAYLOAD,2023-08-14 23:47:23,15.08841985,0.0001239,53.2152,223.6006,86.8642,273.2491,6.7485e-05,7.86e-06,0.0,0 STARLINK-5184,1 54087U 22136AN  23226.99124842  .00000786  00000-0  67485-4 0  9997,2 54087  53.2152 223.6006 0001239  86.8642 273.2491 15.08841985 45895,6917.874,95.437,540.596,538.882,0.0
54087.0,STARLINK-5184,PAYLOAD,2023-08-16 09:10:29,15.08843161,0.0001241,53.2155,217.3554,91.3174,268.796,6.5188e-05,7.5e-06,0.0,0 STARLINK-5184,1 54087U 22136AN  23228.38228704  .00000750  00000-0  65188-4 0  9993,2 54087  53.2155 217.3554 0001241  91.3174 268.7960 15.08843161 46103,6917.871,95.437,540.594,538.877,0.0
54087.0,STARLINK-5184,PAYLOAD,2023-08-17 04:15:07,15.08839502,0.0001321,53.2156,213.7873,92.9495,267.1649,-1.4793e-05,-5.23e-06,0.0,0 STARLINK-5184,1 54087U 22136AN  23229.17717165 -.00000523  00000-0 -14793-4 0  9991,2 54087  53.2156 213.7873 0001321  92.9495 267.1649 15.08839502 46224,6917.882,95.438,540.661,538.833,0.0
54087.0,STARLINK-5184,PAYLOAD,2023-08-17 10:36:39,15.08844428,0.0001403,53.216,212.5981,95.8325,264.2827,4.054e-05,3.57e-06,0.0,0 STARLINK-5184,1 54087U 22136AN  23229.44212671  .00000357  00000-0  40540-4 0  9995,2 54087  53.2160 212.5981 0001403  95.8325 264.2827 15.08844428 46264,6917.867,95.437,540.702,538.761,0.0
54087.0,STARLINK-5184,PAYLOAD,2023-08-18 02:30:31,15.08835288,0.0001339,53.2155,209.6242,95.1708,264.9437,1.6658e-05,-2.3e-07,0.0,0 STARLINK-5184,1 54087U 22136AN  23230.10453512 -.00000023  00000-0  16658-4 0  9995,2 54087  53.2155 209.6242 0001339  95.1708 264.9437 15.08835288 46360,6917.895,95.438,540.686,538.833,0.0
